[{"OBJECT_NAME":"STARLINK-3677","OBJECT_ID":"2022-025Q","EPOCH":"2026-03-09T07:11:46.213152","MEAN_MOTION":15.06401696,"ECCENTRICITY":0.00015376,"INCLINATION":53.0566,"RA_OF_ASC_NODE":32.6524,"ARG_OF_PERICENTER":85.1631,"MEAN_ANOMALY":274.9533,"EPHEMERIS_TYPE":0,"CLASSIFICATION_TYPE":"U","NORAD_CAT_ID":51970,"ELEMENT_SET_NO":999,"REV_AT_EPOCH":22086,"BSTAR":1.844148e-5,"MEAN_MOTION_DOT":-7.0e-8,"MEAN_MOTION_DDOT":0},{"OBJECT_NAME":"JILIN-01 KUANFU 02B 2","OBJECT_ID":"2024-169B","EPOCH":"2026-03-09T21:55:18.103008","MEAN_MOTION":15.09238424,"ECCENTRICITY":0.0011661,"INCLINATION":97.5565,"RA_OF_ASC_NODE":159.2927,"ARG_OF_PERICENTER":15.7533,"MEAN_ANOMALY":344.4056,"EPHEMERIS_TYPE":0,"CLASSIFICATION_TYPE":"U","NORAD_CAT_ID":61190,"ELEMENT_SET_NO":999,"REV_AT_EPOCH":8085,"BSTAR":0.0003793675,"MEAN_MOTION_DOT":5.983e-5,"MEAN_MOTION_DDOT":0}]
